NORAD_CAT_ID,OBJECT_NAME,OBJECT_TYPE,EPOCH,MEAN_MOTION,ECCENTRICITY,INCLINATION,RA_OF_ASC_NODE,ARG_OF_PERICENTER,MEAN_ANOMALY,BSTAR,MEAN_MOTION_DOT,MEAN_MOTION_DDOT,TLE_LINE0,TLE_LINE1,TLE_LINE2,SEMIMAJOR_AXIS,PERIOD,APOGEE,PERIGEE,DECAYED
53632.0,STARLINK-4606,PAYLOAD,2023-04-28 02:01:22,15.08870288,9.49e-05,53.2153,242.5002,74.7139,285.3958,0.0009432,0.00014767,0.0,0 STARLINK-4606,1 53632U 22104AW  23118.08429383  .00014767  00000-0  94320-3 0  9996,2 53632  53.2153 242.5002 0000949  74.7139 285.3958 15.08870288 37207,6917.788,95.436,540.309,538.996,0.0
53632.0,STARLINK-4606,PAYLOAD,2023-04-28 11:33:41,15.08854696,5.83e-05,53.2157,240.7162,78.5577,281.548,0.00093165,0.00014576,0.0,0 STARLINK-4606,1 53632U 22104AW  23118.48173162  .00014576  00000-0  93165-3 0  9995,2 53632  53.2157 240.7162 0000583  78.5577 281.5480 15.08854696 37269,6917.835,95.437,540.104,539.297,0.0
53632.0,STARLINK-4606,PAYLOAD,2023-04-29 11:24:28,15.08839666,0.0001124,53.2158,236.2563,69.466,290.6453,0.0007939,0.00012369,0.0,0 STARLINK-4606,1 53632U 22104AW  23119.47533408  .00012369  00000-0  79390-3 0  9990,2 53632  53.2158 236.2563 0001124  69.4660 290.6453 15.08839666 37417,6917.881,95.438,540.524,538.969,0.0
53632.0,STARLINK-4606,PAYLOAD,2023-04-30 12:50:39,15.08846174,9.65e-05,53.216,231.4973,89.2472,270.863,0.00086155,0.00013453,0.0,0 STARLINK-4606,1 53632U 22104AW  23120.53517365  .00013453  00000-0  86155-3 0  9995,2 53632  53.2160 231.4973 0000965  89.2472 270.8630 15.08846174 38594,6917.862,95.437,540.394,539.059,0.0
53632.0,STARLINK-4606,PAYLOAD,2023-04-30 14:26:02,15.08849637,8.95e-05,53.216,231.1997,83.8983,276.2112,0.0009518,0.00014896,0.0,0 STARLINK-4606,1 53632U 22104AW  23120.60141300  .00014896  00000-0  95180-3 0  9995,2 53632  53.2160 231.1997 0000895  83.8983 276.2112 15.08849637 37586,6917.851,95.437,540.335,539.097,0.0
53632.0,STARLINK-4606,PAYLOAD,2023-05-01 12:41:26,15.08844104,0.0001258,53.2175,227.0382,115.3764,244.7358,-8.1595e-05,-1.586e-05,0.0,0 STARLINK-4606,1 53632U 22104AW  23121.52877319 -.00001586  00000-0 -81595-4 0  9993,2 53632  53.2175 227.0382 0001258 115.3764 244.7358 15.08844104 37728,6917.868,95.437,540.603,538.863,0.0
53632.0,STARLINK-4606,PAYLOAD,2023-05-01 17:27:35,15.08841875,9.29e-05,53.216,226.1438,106.413,253.6965,0.0004071,6.197e-05,0.0,0 STARLINK-4606,1 53632U 22104AW  23121.72749465  .00006197  00000-0  40710-3 0  9999,2 53632  53.2160 226.1438 0000929 106.4130 253.6965 15.08841875 38777,6917.875,95.437,540.382,539.097,0.0
53632.0,STARLINK-4606,PAYLOAD,2023-05-02 12:32:13,15.08854675,9.65e-05,53.216,222.5763,97.1487,262.9615,0.00071423,0.00011102,0.0,0 STARLINK-4606,1 53632U 22104AW  23122.52237269  .00011102  00000-0  71423-3 0  9999,2 53632  53.2160 222.5763 0000965  97.1487 262.9615 15.08854675 38899,6917.836,95.437,540.368,539.033,0.0
53632.0,STARLINK-4606,PAYLOAD,2023-05-02 15:42:59,15.08861122,9.16e-05,53.2158,221.9814,91.9017,268.208,0.00087142,0.00013616,0.0,0 STARLINK-4606,1 53632U 22104AW  23122.65485069  .00013616  00000-0  87142-3 0  9993,2 53632  53.2158 221.9814 0000916  91.9017 268.2080 15.08861122 37892,6917.816,95.436,540.315,539.047,0.0
53632.0,STARLINK-4606,PAYLOAD,2023-05-02 23:39:54,15.08846035,7.94e-05,53.216,220.495,114.1686,245.9389,0.00031186,4.68e-05,0.0,0 STARLINK-4606,1 53632U 22104AW  23122.98605148  .00004680  00000-0  31186-3 0  9999,2 53632  53.2160 220.4950 0000794 114.1686 245.9389 15.08846035 37940,6917.862,95.437,540.276,539.178,0.0
53632.0,STARLINK-4606,PAYLOAD,2023-05-03 12:23:00,15.08835179,8.45e-05,53.2163,218.1169,104.3859,255.7227,-4.4387e-05,-9.94e-06,0.0,0 STARLINK-4606,1 53632U 22104AW  23123.51597563 -.00000994  00000-0 -44387-4 0  9994,2 53632  53.2163 218.1169 0000845 104.3859 255.7227 15.08835179 38026,6917.895,95.438,540.345,539.176,0.0
53632.0,STARLINK-4606,PAYLOAD,2023-05-03 13:58:23,15.08836844,8.74e-05,53.2165,217.8196,103.1632,256.9458,9.4556e-06,-1.37e-06,0.0,0 STARLINK-4606,1 53632U 22104AW  23123.58221621 -.00000137  00000-0  94556-5 0  9992,2 53632  53.2165 217.8196 0000874 103.1632 256.9458 15.08836844 39055,6917.89,95.438,540.36,539.15,0.0
53632.0,STARLINK-4606,PAYLOAD,2023-05-03 15:33:46,15.08840199,8.91e-05,53.2163,217.5219,103.5045,256.6046,8.1564e-05,1.011e-05,0.0,0 STARLINK-4606,1 53632U 22104AW  23123.64845567  .00001011  00000-0  81564-4 0  9995,2 53632  53.2163 217.5219 0000891 103.5045 256.6046 15.08840199 39066,6917.88,95.438,540.361,539.128,0.0
53632.0,STARLINK-4606,PAYLOAD,2023-05-04 12:13:47,15.08846035,8.04e-05,53.2155,213.6555,91.1904,268.918,0.00021097,3.072e-05,0.0,0 STARLINK-4606,1 53632U 22104AW  23124.50957612  .00003072  00000-0  21097-3 0  9999,2 53632  53.2155 213.6555 0000804  91.1904 268.9180 15.08846035 39191,6917.862,95.437,540.283,539.171,0.0
53632.0,STARLINK-4606,PAYLOAD,2023-05-04 23:21:29,15.08842327,7.34e-05,53.2153,211.5744,87.4352,272.6724,0.00018589,2.672e-05,0.0,0 STARLINK-4606,1 53632U 22104AW  23124.97325835  .00002672  00000-0  18589-3 0  9993,2 53632  53.2153 211.5744 0000734  87.4352 272.6724 15.08842327 38244,6917.873,95.437,540.246,539.231,0.0
53632.0,STARLINK-4606,PAYLOAD,2023-05-05 15:15:20,15.08843951,8.18e-05,53.2157,208.6005,92.5078,267.6008,0.00019385,2.799e-05,0.0,0 STARLINK-4606,1 53632U 22104AW  23125.63565947  .00002799  00000-0  19385-3 0  9992,2 53632  53.2157 208.6005 0000818  92.5078 267.6008 15.08843951 39367,6917.868,95.437,540.299,539.167,0.0
53632.0,STARLINK-4606,PAYLOAD,2023-05-06 15:06:09,15.08820216,0.0001354,53.2164,204.1372,110.0387,250.0751,0.0011141,0.00017478,0.0,0 STARLINK-4606,1 53632U 22104AW  23126.62927725  .00017478  00000-0  11141-2 0  9999,2 53632  53.2164 204.1372 0001354 110.0387 250.0751 15.08820216 39515,6917.941,95.439,540.743,538.869,0.0
53632.0,STARLINK-4606,PAYLOAD,2023-05-07 10:10:45,15.08838543,0.0001103,53.2161,200.5678,111.115,248.996,6.5656e-05,7.57e-06,0.0,0 STARLINK-4606,1 53632U 22104AW  23127.42414220  .00000757  00000-0  65656-4 0  9993,2 53632  53.2161 200.5678 0001103 111.1150 248.9960 15.08838543 38613,6917.885,95.438,540.513,538.987,0.0
53632.0,STARLINK-4606,PAYLOAD,2023-05-07 21:18:27,15.08841368,0.0001058,53.2165,198.4869,89.0559,271.0554,0.0001907,2.749e-05,0.0,0 STARLINK-4606,1 53632U 22104AW  23127.88782148  .00002749  00000-0  19070-3 0  9991,2 53632  53.2165 198.4869 0001058  89.0559 271.0554 15.08841368 39705,6917.876,95.437,540.473,539.009,0.0
53632.0,STARLINK-4606,PAYLOAD,2023-05-08 11:36:56,15.08829535,0.0001377,53.2163,195.8184,123.5061,236.6063,0.00023318,3.424e-05,0.0,0 STARLINK-4606,1 53632U 22104AW  23128.48398753  .00003424  00000-0  23318-3 0  9994,2 53632  53.2163 195.8184 0001377 123.5061 236.6063 15.08829535 38770,6917.912,95.438,540.73,538.825,0.0
53632.0,STARLINK-4606,PAYLOAD,2023-05-09 11:27:43,15.08842276,0.0001329,53.2177,191.3581,114.8916,245.2215,0.00012966,1.776e-05,0.0,0 STARLINK-4606,1 53632U 22104AW  23129.47758304  .00001776  00000-0  12966-3 0  9991,2 53632  53.2177 191.3581 0001329 114.8916 245.2215 15.08842276 39948,6917.873,95.437,540.658,538.819,0.0
53632.0,STARLINK-4606,PAYLOAD,2023-05-10 11:18:30,15.08839805,0.0001184,53.217,186.8957,100.1514,259.9612,7.4868e-05,9.04e-06,0.0,0 STARLINK-4606,1 53632U 22104AW  23130.47118838  .00000904  00000-0  74868-4 0  9997,2 53632  53.2170 186.8957 0001184 100.1514 259.9612 15.08839805 40093,6917.881,95.438,540.565,538.927,0.0
53632.0,STARLINK-4606,PAYLOAD,2023-05-11 11:09:17,15.0884686,0.0001171,53.2168,182.4353,98.959,261.1534,0.00013327,1.834e-05,0.0,0 STARLINK-4606,1 53632U 22104AW  23131.46478168  .00001834  00000-0  13327-3 0  9997,2 53632  53.2168 182.4353 0001171  98.9590 261.1534 15.08846860 39226,6917.859,95.437,540.535,538.914,0.0
53632.0,STARLINK-4606,PAYLOAD,2023-05-11 20:41:36,15.08842529,0.0001031,53.2159,180.65,95.2534,264.8576,3.4464e-05,2.61e-06,0.0,0 STARLINK-4606,1 53632U 22104AW  23131.86222619  .00000261  00000-0  34464-4 0  9998,2 53632  53.2159 180.6500 0001031  95.2534 264.8576 15.08842529 39283,6917.873,95.437,540.451,539.024,0.0
53632.0,STARLINK-4606,PAYLOAD,2023-05-11 22:16:59,15.08836394,0.0001379,53.2159,180.3524,68.6924,291.4216,0.00012056,1.631e-05,0.0,0 STARLINK-4606,1 53632U 22104AW  23131.92847066  .00001631  00000-0  12056-3 0  9998,2 53632  53.2159 180.3524 0001379  68.6924 291.4216 15.08836394 40314,6917.891,95.438,540.71,538.802,0.0
53632.0,STARLINK-4606,PAYLOAD,2023-05-12 07:49:18,15.08850932,0.0001313,53.2158,178.5674,79.3742,280.7398,-0.00024797,-4.233e-05,0.0,0 STARLINK-4606,1 53632U 22104AW  23132.32590736 -.00004233  00000-0 -24797-3 0  9990,2 53632  53.2158 178.5674 0001313  79.3742 280.7398 15.08850932 40375,6917.847,95.437,540.62,538.804,0.0
53632.0,STARLINK-4606,PAYLOAD,2023-05-13 06:04:42,15.08843096,0.0001117,53.2155,174.4016,107.0365,253.075,6.6436e-05,7.7e-06,0.0,0 STARLINK-4606,1 53632U 22104AW  23133.25326734  .00000770  00000-0  66436-4 0  9995,2 53632  53.2155 174.4016 0001117 107.0365 253.0750 15.08843096 39498,6917.871,95.437,540.509,538.963,0.0
53632.0,STARLINK-4606,PAYLOAD,2023-05-13 09:15:28,15.08845045,0.0001141,53.2156,173.809,80.5524,279.5597,6.9345e-05,8.16e-06,0.0,0 STARLINK-4606,1 53632U 22104AW  23133.38574684  .00000816  00000-0  69345-4 0  9991,2 53632  53.2156 173.8090 0001141  80.5524 279.5597 15.08845045 40538,6917.865,95.437,540.519,538.941,0.0
53632.0,STARLINK-4606,PAYLOAD,2023-05-14 05:55:29,15.08835748,0.000113,53.2158,169.9441,75.0784,285.0333,0.00012737,1.74e-05,0.0,0 STARLINK-4606,1 53632U 22104AW  23134.24687226  .00001740  00000-0  12737-3 0  9993,2 53632  53.2158 169.9441 0001130  75.0784 285.0333 15.08835748 39640,6917.893,95.438,540.54,538.977,0.0
53632.0,STARLINK-4606,PAYLOAD,2023-05-14 10:41:39,15.08839266,0.0001134,53.2161,169.0524,84.57,275.5421,0.00010461,1.377e-05,0.0,0 STARLINK-4606,1 53632U 22104AW  23134.44559064  .00001377  00000-0  10461-3 0  9991,2 53632  53.2161 169.0524 0001134  84.5700 275.5421 15.08839266 40692,6917.883,95.438,540.532,538.963,0.0
